COSMOS 2433 (720)       
1 32275U 07052A   26132.25207707 -.00000010  00000+0  00000+0 0  9997
2 32275  65.5976 317.1434 0001260 191.2243 168.7927  2.13104323144292
COSMOS 2432 (719)       
1 32276U 07052B   26132.45000145 -.00000011  00000+0  00000+0 0  9998
2 32276  65.6134 317.2637 0008594 337.2231 118.6433  2.13103386144320
COSMOS 2434 (721)       
1 32393U 07065A   26132.38841561  .00000063  00000+0  00000+0 0  9995
2 32393  64.3159 193.1230 0001316  37.3934 317.2266  2.13101512143000
COSMOS 2436 (723)       
1 32395U 07065C   26132.46615537  .00000064  00000+0  00000+0 0  9999
2 32395  64.3244 193.1922 0017145 356.9500 189.7717  2.13100423142968
COSMOS 2456 (730)       
1 36111U 09070A   26132.42869010  .00000000  00000+0  00000+0 0  9990
2 36111  64.9918  72.1911 0005801 319.3080 224.1525  2.13103918127661
COSMOS 2457 (733)       
1 36112U 09070B   26132.20336640  .00000001  00000+0  00000+0 0  9996
2 36112  64.9768  72.0433 0001452 149.1813 349.1541  2.13101274127663
COSMOS 2460 (732)       
1 36402U 10007C   26131.55793229 -.00000009  00000+0  00000+0 0  9996
2 36402  65.4421 315.7062 0002330  75.4880 289.5475  2.13106456125953
COSMOS 2476 (744)       
1 37867U 11064A   26131.59394439  .00000010  00000+0  00000+0 0  9991
2 37867  65.2506  74.1062 0023774 241.4161 289.9879  2.13103972112980
COSMOS 2477 (745)       
1 37868U 11064B   26132.53934963  .00000004  00000+0  00000+0 0  9992
2 37868  65.2574  74.1534 0020759 243.0506 114.0839  2.13103074112999
COSMOS 2475 (743)       
1 37869U 11064C   26132.83910987  .00000002  00000+0  00000+0 0  9994
2 37869  65.2648  74.1642 0026904 255.0193 287.3538  2.13101982113015
COSMOS 2485 (747)       
1 39155U 13019A   26132.24625881  .00000007  00000+0  00000+0 0  9992
2 39155  65.4009  74.8101 0024128 236.7014 123.0533  2.13103412101512
COSMOS 2492 (754)       
1 39620U 14012A   26129.38966135 -.00000011  00000+0  00000+0 0  9990
2 39620  65.3203 315.2545 0011098 329.7315  30.2203  2.13103326 94414
COSMOS 2500 (755)       
1 40001U 14032A   26129.09065559 -.00000012  00000+0  00000+0 0  9996
2 40001  65.2556 315.0151 0005992 181.4520 178.5615  2.13106197 92620
COSMOS 2501 (702K)      
1 40315U 14075A   26132.63703521  .00000068  00000+0  00000+0 0  9993
2 40315  63.6143 191.6025 0022142 210.7482 149.1999  2.13101550 89093
COSMOS 2514 (751)       
1 41330U 16008A   26132.15217779 -.00000010  00000+0  00000+0 0  9999
2 41330  65.0436 314.2432 0009974 197.0747 162.9073  2.13102651 79858
COSMOS 2522 (752)       
1 42939U 17055A   26132.45930743  .00000064  00000+0  00000+0 0  9992
2 42939  64.0766 193.1001 0009875 237.8379 122.1429  2.13102034 67214
COSMOS 2527 (756)       
1 43508U 18053A   26130.54369296  .00000017  00000+0  00000+0 0  9999
2 43508  65.5577  75.1624 0008142 246.5326 113.3712  2.13102285 61475
COSMOS 2529 (757)       
1 43687U 18086A   26132.04825520  .00000058  00000+0  00000+0 0  9992
2 43687  64.2931 193.8143 0010911 255.4886 104.4650  2.13102225 58511
COSMOS 2534 (758)       
1 44299U 19030A   26130.46780834  .00000041  00000+0  00000+0 0  9996
2 44299  64.3663 193.8862 0012337 276.0898  85.9352  2.13102604 54124
COSMOS 2544 (759)       
1 44850U 19088A   26130.95764889  .00000015  00000+0  00000+0 0  9999
2 44850  65.5460  74.9726 0014547 261.4033  98.4208  2.13102139 49921
COSMOS 2545 (760)       
1 45358U 20018A   26131.62217674 -.00000011  00000+0  00000+0 0  9995
2 45358  64.3776 313.7043 0007240 235.7483 124.1982  2.13102757 47888
COSMOS 2547 (705K)      
1 46805U 20075A   26132.28065772  .00000061  00000+0  00000+0 0  9993
2 46805  64.5971 193.6738 0008732 237.5791 122.4119  2.13100308 43148
COSMOS 2557 (706K)      
1 52984U 22075A   26132.44521366 -.00000014  00000+0  00000+0 0  9993
2 52984  64.3200 315.7445 0010071 278.8853  81.0175  2.13102065 29951
COSMOS 2559 (707K)      
1 54031U 22130A   26130.85697598 -.00000012  00000+0  00000+0 0  9992
2 54031  64.2936 315.8848 0011772 176.1333 183.8938  2.13101551 27899
COSMOS 2564 (761)       
1 54377U 22161A   26132.10814193  .00000059  00000+0  00000+0 0  9991
2 54377  64.7391 193.9090 0011503 221.8777 138.1090  2.13102006 26862
COSMOS 2569 (703K)      
1 57517U 23114A   26132.12054090  .00000006  00000+0  00000+0 0  9995
2 57517  65.2829  73.8361 0011967 296.1313  63.7321  2.13103754 21490
COSMOS 2584 (704K)      
1 63130U 25042A   26132.00743125  .00000007  00000+0  00000+0 0  9997
2 63130  65.0650  74.0315 0006355 235.0573 124.8698  2.13103732  9279
COSMOS 2596 (708K)      
1 65590U 25206B   26132.08725519 -.00000012  00000+0  00000+0 0  9993
2 65590  64.6568 316.2427 0011354 315.8273 222.0958  2.13100605  5146
